{
  "type": "FeatureCollection",
  "features": [
    {
      "type": "Feature",
      "geometry": {
        "type": "Point",
        "coordinates": [
          4.944361206750142,
          52.35720100750338,
          2.8910961151123047
        ]
      },
      "properties": {
        "time": "2024-12-13T11:21:34",
        "name": "12:21:34",
        "desc": "13 Dec 2024 at 12:21:34"
      }
    },
    {
      "type": "Feature",
      "geometry": {
        "type": "MultiLineString",
        "coordinates": [
          [
            [
              4.944269499397076,
              52.35705653480282,
              -0.40054673328995705
            ],
            [
              4.944295883585486,
              52.35704047631379,
              -0.35818830970674753
            ],
            [
              4.944323783382689,
              52.357030994312154,
              -0.2482029590755701
            ],
            [
              4.94436099546502,
              52.357015899934446,
              -0.28030749037861824
            ],
            [
              4.944330254631046,
              52.35699223202129,
              -0.2814061613753438
            ],
            [
              4.944304645609581,
              52.35698817660136,
              -0.13968252297490835
            ],
            [
              4.944321711385519,
              52.35696851859172,
              -0.06735586374998093
            ],
            [
              4.944308756219852,
              52.35699376272212,
              0.050991371273994446
            ],
            [
              4.944264369177093,
              52.356996939226995,
              -0.024570192210376263
            ],
            [
              4.944301867406341,
              52.35700305474495,
              0.06209965795278549
            ],
            [
              4.944352684689123,
              52.35700349002317,
              -0.07370354235172272
            ],
            [
              4.944391004343904,
              52.357021976213595,
              -0.19516350328922272
            ],
            [
              4.944349720966841,
              52.35703166301867,
              -0.47891602106392384
            ],
            [
              4.944343908051203,
              52.357022275441366,
              -0.43259033747017384
            ],
            [
              4.944369366237677,
              52.35701164992754,
              -0.3614843813702464
            ],
            [
              4.944382589315012,
              52.35700399154085,
              -0.3187599182128906
            ],
            [
              4.944396902295239,
              52.35698474362276,
              -0.30490476731210947
            ],
            [
              4.9443312450761026,
              52.35698414176302,
              -0.30490434169769287
            ],
            [
              4.944200618197159,
              52.35699984249912,
              -0.2674903189763427
            ],
            [
              4.944345983847271,
              52.357069113100636,
              0.010458444245159626
            ],
            [
              4.944276587534161,
              52.35707532597198,
              -0.39029108826071024
            ],
            [
              4.9443010042120195,
              52.35707217027495,
              -0.4122254028916359
            ],
            [
              4.944207834202478,
              52.35702830315335,
              -0.42224550899118185
            ],
            [
              4.944257162912914,
              52.35684013769095,
              -0.24780516605824232
            ],
            [
              4.944162447150491,
              52.35677183881367,
              0.2714012758806348
            ],
            [
              4.944118382280605,
              52.35673221897169,
              0.9031378719955683
            ],
            [
              4.944192009771823,
              52.35674186659781,
              1.7157760439440608
            ],
            [
              4.944231656822751,
              52.35672454164301,
              2.1071493374183774
            ],
            [
              4.944240420896935,
              52.35669933576359,
              2.3511119186878204
            ],
            [
              4.944176112373424,
              52.35699040818906,
              2.3175261188298464
            ],
            [
              4.944194946954288,
              52.35701435322841,
              1.275597058236599
            ],
            [
              4.944300543753011,
              52.35707257112038,
              0.11780358571559191
            ],
            [
              4.944261397143162,
              52.35705164966027,
              -0.6064226794987917
            ],
            [
              4.944164410020695,
              52.3570234761829,
              -0.6722349431365728
            ],
            [
              4.944223763904203,
              52.35705055282522,
              -0.47893452271819115
            ],
            [
              4.944190017992444,
              52.357043090651274,
              -0.3402085639536381
            ],
            [
              4.944190027788364,
              52.357043434282275,
              -0.34507658518850803
            ],
            [
              4.944194041069916,
              52.356995100455286,
              0.10349504835903645
            ],
            [
              4.9441374994094005,
              52.35700800087526,
              0.5073776915669441
            ],
            [
              4.944125170249166,
              52.35702542708201,
              0.546329153701663
            ],
            [
              4.944222825238575,
              52.35703112788401,
              0.5063541792333126
            ],
            [
              4.9442576997838765,
              52.35702549901054,
              -0.02075101714581251
            ],
            [
              4.944268095115011,
              52.357003732666755,
              -0.09352555498480797
            ],
            [
              4.944164548610411,
              52.356972356518305,
              -0.06487354263663292
            ],
            [
              4.9440498136337085,
              52.35703827167631,
              0.14271060284227133
            ]
          ]
        ]
      },
      "properties": {}
    }
  ]
}